NETSAT-4                
1 46504U 20068U   23130.80546419  .00007538  00000+0  50478-3 0  9990
2 46504  97.7594  76.2809 0009902 304.8864  55.1436 15.07161773143276
NETSAT-3                
1 46505U 20068V   23130.90117955  .00007505  00000+0  50464-3 0  9990
2 46505  97.7572  76.2194 0008953 314.1827  45.8666 15.07021160143296
NETSAT-1                
1 46506U 20068W   23130.80466623  .00006318  00000+0  42861-3 0  9992
2 46506  97.7579  76.0122 0008099 326.5587  33.5130 15.06764218143279
NETSAT-2                
1 46507U 20068X   23130.80174630  .00007416  00000+0  49792-3 0  9997
2 46507  97.7581  76.0317 0007734 336.1594  23.9275 15.07086917143221
SAI-1 NANOCONNECT-2     
1 47701U 21015C   23130.80562242  .00064928  00000+0  13609-2 0  9995
2 47701  97.3856 213.3590 0006348  11.2874 348.8516 15.45166917122371
WILDTRACKCUBE-SIMBA     
1 47941U 21022K   23130.85018541  .00009575  00000+0  56337-3 0  9995
2 47941  97.5020  28.5880 0021183 103.6000 321.0148 15.11661618117369
BEESAT-6                
1 47957U 21022AB  23130.68165172  .00027724  00000+0  13637-2 0  9997
2 47957  97.4977  29.8704 0019179 100.8969 259.4424 15.17813991117247
SMOG-1                  
1 47964U 21022AJ  23130.66408217  .00028195  00000+0  13198-2 0  9998
2 47964  97.5016  31.7551 0017705  89.0452 271.2811 15.19557562116376
BCCSAT-1                
1 48041U 21022AK  23130.77645123  .00025679  00000+0  12735-2 0  9996
2 48041  97.5017  30.9013 0015174  89.0138 271.2834 15.17605829116303
BEESAT-5                
1 48083U 21022AM  23129.96627865  .00023495  00000+0  11148-2 0  9995
2 48083  97.4920  29.3111 0019063 101.5934 258.7442 15.19103839116285
BEESAT-7                
1 48084U 21022AN  23129.97289991  .00021546  00000+0  10483-2 0  9997
2 48084  97.4968  29.2585 0019141 102.1776 258.1603 15.18249090115865
BEESAT-8                
1 48085U 21022AP  23130.68546884  .00016426  00000+0  86642-3 0  9997
2 48085  97.5016  29.5981 0019861 101.2278 259.1188 15.15460591116509
LEDSAT                  
1 49069U 21073D   23130.77455781  .00011889  00000+0  66264-3 0  9997
2 49069  97.4830 202.2971 0023032 247.4766 112.4028 15.13518730 95242
1998-067UL              
1 54534U 98067UL  23130.25408591  .01988201  40294-2  15237-2 0  9994
2 54534  51.6164 136.5633 0005611  22.0807 338.0450 16.15298200 24963
1998-067UN              
1 54536U 98067UN  23130.86965613  .00412229  75672-4  12544-2 0  9995
2 54536  51.6370 136.9267 0009996  30.1392  39.1225 15.91385297 24976
1998-067UP              
1 54537U 98067UP  23130.24145307  .01976085  11835-4  10968-2 0  9993
2 54537  51.6192 136.2593 0008791   4.1616  85.5453 16.18608743 24967
LORIS                   
1 55125U 98067US  23130.87683813  .00477106  96152-4  16215-2 0  9990
2 55125  51.6276 139.3406 0010341  29.7662 330.3930 15.89198985 20808
ORCASAT                 
1 55126U 98067UT  23130.75532204  .00212590  00000+0  12811-2 0  9999
2 55126  51.6333 143.0887 0009939  21.1842 338.9568 15.76446770 20743
TJREVERB                
1 55128U 98067UV  23130.25535187  .00389348  00000+0  14833-2 0  9991
2 55128  51.6271 143.4474 0011355  21.7781 338.3704 15.85881188 20680
SPORT                   
1 55129U 98067UW  23130.74953683  .00075087  00000+0  77225-3 0  9998
2 55129  51.6339 147.5673 0006670   5.4054 354.7012 15.64173097 20671
HSKSAT                  
1 55182U 98067UZ  23130.73495829  .00198292  00000+0  12266-2 0  9996
2 55182  51.6291 143.6821 0008217   6.8103 353.3007 15.75915488 19440
OPTIMAL-1               
1 55183U 98067VA  23130.74362145  .00124075  00000+0  10577-2 0  9993
2 55183  51.6365 146.0393 0009806  13.6190 346.5070 15.68585581 19411
